0 COSMOS 2251 DEB
1 35727U 93036AQY 13281.46421698  .00007458  00000-0  75937-3 0  3868
2 35727 073.9599 287.0165 0111948 155.4355 356.3127 14.86273639233171
0 COSMOS 2251 DEB
1 35727U 93036AQY 13282.98969071  .00012631  00000-0  12813-2 0  3871
2 35727 073.9599 283.9669 0111802 151.9938 238.6228 14.86315137233390
0 COSMOS 2251 DEB
1 35727U 93036AQY 13285.35235307  .00009773  00000-0  99210-3 0  3884
2 35727 073.9591 279.2430 0111549 146.6448 280.8497 14.86357292233756
0 COSMOS 2251 DEB
1 35727U 93036AQY 13287.65099887  .00012419  00000-0  12582-2 0  3898
2 35727 073.9589 274.6475 0111404 141.4366 340.8872 14.86396320234090
0 COSMOS 2251 DEB
1 35727U 93036AQY 13288.39675713  .00017725  00000-0  17916-2 0  3901
2 35727 073.9590 273.1565 0111369 139.7613 011.5107 14.86424980234201
0 COSMOS 2251 DEB
1 35727U 93036AQY 13289.60165687  .00017022  00000-0  17199-2 0  3914
2 35727 073.9589 270.7466 0111307 137.0301 339.1980 14.86452302234385
0 COSMOS 2251 DEB
1 35727U 93036AQY 13290.61136693  .00017589  00000-0  17759-2 0  3923
2 35727 073.9592 268.7271 0111252 134.7460 342.4680 14.86477086234536
0 COSMOS 2251 DEB
1 35727U 93036AQY 13292.28387824  .00013442  00000-0  13578-2 0  3932
2 35727 073.9597 265.3820 0111159 130.9619 292.7812 14.86517348234781
0 COSMOS 2251 DEB
1 35727U 93036AQY 13294.30404174  .00016797  00000-0  16931-2 0  3948
2 35727 073.9602 261.3424 0111149 126.4071 303.8385 14.86559390235081
